ONEWEB-0509             
1 54127U 22138Q   23305.91930513  .00000437  00000+0  10583-2 0  9991
2 54127  87.9180 135.7058 0001905  83.7179 276.4170 13.19722136 50415
ONEWEB-0510             
1 54128U 22138R   23305.88436663  .00000020  00000+0  16887-4 0  9998
2 54128  87.9208 105.1703 0001203  83.7416 276.3855 13.20769234 52783
ONEWEB-0511             
1 54129U 22138S   23306.06778168  .00000116  00000+0  25616-3 0  9994
2 54129  87.9179 135.6774 0002083  83.2455 276.8914 13.19724942 51338
ONEWEB-0512             
1 54130U 22138T   23305.90825534 -.00000014  00000+0 -68351-4 0  9991
2 54130  87.9177 135.7075 0001822  66.4745 293.6579 13.19724297 50413
ONEWEB-0513             
1 54131U 22138U   23305.80319984  .00000007  00000+0 -13763-4 0  9996
2 54131  87.9178 135.7327 0002175  68.3931 291.7433 13.19722467 50285
ONEWEB-0514             
1 54132U 22138V   23305.92404456  .00000054  00000+0  10276-3 0  9995
2 54132  87.9181 135.7085 0001658  84.8236 275.3086 13.19725331 50439
ONEWEB-0515             
1 54133U 22138W   23305.94749401  .00000093  00000+0  19669-3 0  9998
2 54133  87.9156 105.1722 0001079 125.0243 235.0991 13.20772417 52815
ONEWEB-0516             
1 54134U 22138X   23305.89876422 -.00000021  00000+0 -85292-4 0  9996
2 54134  87.9180 135.7093 0001501  80.2734 279.8568 13.19726824 50431
